[Satellite]
VERSION=1.1
NAME=FLOCK 2E-4
NICKNAME=FLOCK 2E-4
TLE1=1 41487U 98067JH  18020.91429307  .00148187  00000-0  54691-3 0  9997
TLE2=2 41487  51.6282 338.8516 0005165 127.9606 232.1866 15.87222335 96014
